CTC1_L_00268016-03
1 15139U 26371FL  26037.47804398  .00000000  00000+0  00000-0 0  9998
2 15139  40.0000 180.0000 0000000   0.0000   0.0000 15.28598690    18
CTC1_L_00268016-04
1 15140U 23688RZ  26037.47804398  .00000000  00000+0  00000-0 0  9998
2 15140  40.0000 180.0000 0000000   0.0000  90.0000 15.28598690    19
CTC1_L_00268017-01
1 15141U 26732RR  26037.47804398  .00000000  00000+0  00000-0 0  9992
2 15141  40.0000 192.0000 0000000   0.0000 192.0000 15.28598690    16
CTC1_L_00268017-02
1 15142U 26260IJ  26037.47804398  .00000000  00000+0  00000-0 0  9999
2 15142  40.0000 192.0000 0000000   0.0000 282.0000 15.28598690    17
CTC1_L_00268017-03
1 15143U 24744PO  26037.47804398  .00000000  00000+0  00000-0 0  9995
2 15143  40.0000 192.0000 0000000   0.0000  12.0000 15.28598690    19
CTC1_L_00268017-04
1 15144U 23192ZO  26037.47804398  .00000000  00000+0  00000-0 0  9992
2 15144  40.0000 192.0000 0000000   0.0000 102.0000 15.28598690    10
CTC1_L_00268018-01
1 15145U 22058DO  26037.47804398  .00000000  00000+0  00000-0 0  9993
2 15145  40.0000 204.0000 0000000   0.0000 204.0000 15.28598690    18
CTC1_L_00268018-02
1 15146U 25123BS  26037.47804398  .00000000  00000+0  00000-0 0  9990
2 15146  40.0000 204.0000 0000000   0.0000 294.0000 15.28598690    18
CTC1_L_00268018-03
1 15147U 26477FB  26037.47804398  .00000000  00000+0  00000-0 0  9994
2 15147  40.0000 204.0000 0000000   0.0000  24.0000 15.28598690    10
CTC1_L_00268018-04
1 15148U 26031UX  26037.47804398  .00000000  00000+0  00000-0 0  9991
2 15148  40.0000 204.0000 0000000   0.0000 114.0000 15.28598690    11
CTC1_L_00268019-01
1 15149U 22954IT  26037.47804398  .00000000  00000+0  00000-0 0  9992
2 15149  40.0000 216.0000 0000000   0.0000 216.0000 15.28598690    18
CTC1_L_00268019-02
1 15150U 22914QJ  26037.47804398  .00000000  00000+0  00000-0 0  9990
2 15150  40.0000 216.0000 0000000   0.0000 306.0000 15.28598690    10
CTC1_L_00268019-03
1 15151U 22747K   26037.47804398  .00000000  00000+0  00000-0 0  9995
2 15151  40.0000 216.0000 0000000   0.0000  36.0000 15.28598690    11
CTC1_L_00268019-04
1 15152U 25021OW  26037.47804398  .00000000  00000+0  00000-0 0  9994
2 15152  40.0000 216.0000 0000000   0.0000 126.0000 15.28598690    12
CTC1_L_00268020-01
1 15153U 22436ZQ  26037.47804398  .00000000  00000+0  00000-0 0  9992
2 15153  40.0000 228.0000 0000000   0.0000 228.0000 15.28598690    19
CTC1_L_00268020-02
1 15154U 25437RQ  26037.47804398  .00000000  00000+0  00000-0 0  9997
2 15154  40.0000 228.0000 0000000   0.0000 318.0000 15.28598690    10
CTC1_L_00268020-03
1 15155U 24686TG  26037.47804398  .00000000  00000+0  00000-0 0  9993
2 15155  40.0000 228.0000 0000000   0.0000  48.0000 15.28598690    11
CTC1_L_00268020-04
1 15156U 25784RH  26037.47804398  .00000000  00000+0  00000-0 0  9994
2 15156  40.0000 228.0000 0000000   0.0000 138.0000 15.28598690    12
CTC1_L_00268021-01
1 15157U 24710F   26037.47804398  .00000000  00000+0  00000-0 0  9993
2 15157  40.0000 240.0000 0000000   0.0000 240.0000 15.28598690    11
CTC1_L_00268021-02
1 15158U 22493PQ  26037.47804398  .00000000  00000+0  00000-0 0  9990
2 15158  40.0000 240.0000 0000000   0.0000 330.0000 15.28598690    12
CTC1_L_00268021-03
1 15159U 25166LU  26037.47804398  .00000000  00000+0  00000-0 0  9991
2 15159  40.0000 240.0000 0000000   0.0000  60.0000 15.28598690    13
CTC1_L_00268021-04
1 15160U 24497KY  26037.47804398  .00000000  00000+0  00000-0 0  9999
2 15160  40.0000 240.0000 0000000   0.0000 150.0000 15.28598690    15
CTC1_L_00268022-01
1 15161U 23025HR  26037.47804398  .00000000  00000+0  00000-0 0  9996
2 15161  40.0000 252.0000 0000000   0.0000 252.0000 15.28598690    12
CTC1_L_00268022-02
1 15162U 24743JD  26037.47804398  .00000000  00000+0  00000-0 0  9995
2 15162  40.0000 252.0000 0000000   0.0000 342.0000 15.28598690    13
CTC1_L_00268022-03
1 15163U 24398QA  26037.47804398  .00000000  00000+0  00000-0 0  9992
2 15163  40.0000 252.0000 0000000   0.0000  72.0000 15.28598690    14
CTC1_L_00268022-04
1 15164U 23637LM  26037.47804398  .00000000  00000+0  00000-0 0  9998
2 15164  40.0000 252.0000 0000000   0.0000 162.0000 15.28598690    15
CTC1_L_00268023-01
1 15165U 23590PG  26037.47804398  .00000000  00000+0  00000-0 0  9997
2 15165  40.0000 264.0000 0000000   0.0000 264.0000 15.28598690    12
CTC1_L_00268023-02
1 15166U 23627DV  26037.47804398  .00000000  00000+0  00000-0 0  9999
2 15166  40.0000 264.0000 0000000   0.0000 354.0000 15.28598690    13
CTC1_L_00268023-03
1 15167U 22338OO  26037.47804398  .00000000  00000+0  00000-0 0  9998
2 15167  40.0000 264.0000 0000000   0.0000  84.0000 15.28598690    14
CTC1_L_00268023-04
1 15168U 25642JR  26037.47804398  .00000000  00000+0  00000-0 0  9990
2 15168  40.0000 264.0000 0000000   0.0000 174.0000 15.28598690    15
CTC1_L_00268024-01
1 15169U 25514MN  26037.47804398  .00000000  00000+0  00000-0 0  9999
2 15169  40.0000 276.0000 0000000   0.0000 276.0000 15.28598690    12
CTC1_L_00268024-02
1 15170U 22379DQ  26037.47804398  .00000000  00000+0  00000-0 0  9997
2 15170  40.0000 276.0000 0000000   0.0000   6.0000 15.28598690    15
CTC1_L_00268024-03
1 15171U 26024FS  26037.47804398  .00000000  00000+0  00000-0 0  9999
2 15171  40.0000 276.0000 0000000   0.0000  96.0000 15.28598690    15
CTC1_L_00268024-04
1 15172U 26192AE  26037.47804398  .00000000  00000+0  00000-0 0  9996
2 15172  40.0000 276.0000 0000000   0.0000 186.0000 15.28598690    16
CTC1_L_00268025-01
1 15173U 25415HO  26037.47804398  .00000000  00000+0  00000-0 0  9994
2 15173  40.0000 288.0000 0000000   0.0000 288.0000 15.28598690    13
CTC1_L_00268025-02
1 15174U 26606EX  26037.47804398  .00000000  00000+0  00000-0 0  9998
2 15174  40.0000 288.0000 0000000   0.0000  18.0000 15.28598690    15
CTC1_L_00268025-03
1 15175U 26084JI  26037.47804398  .00000000  00000+0  00000-0 0  9999
2 15175  40.0000 288.0000 0000000   0.0000 108.0000 15.28598690    16
CTC1_L_00268025-04
1 15176U 22638FD  26037.47804398  .00000000  00000+0  00000-0 0  9991
2 15176  40.0000 288.0000 0000000   0.0000 198.0000 15.28598690    16
CTC1_L_00268026-01
1 15177U 23435BU  26037.47804398  .00000000  00000+0  00000-0 0  9998
2 15177  40.0000 300.0000 0000000   0.0000 300.0000 15.28598690    17
CTC1_L_00268026-02
1 15178U 25361CR  26037.47804398  .00000000  00000+0  00000-0 0  9999
2 15178  40.0000 300.0000 0000000   0.0000  30.0000 15.28598690    18
CTC1_L_00268026-03
1 15179U 23376KH  26037.47804398  .00000000  00000+0  00000-0 0  9994
2 15179  40.0000 300.0000 0000000   0.0000 120.0000 15.28598690    19
CTC1_L_00268026-04
1 15180U 26759ET  26037.47804398  .00000000  00000+0  00000-0 0  9994
2 15180  40.0000 300.0000 0000000   0.0000 210.0000 15.28598690    11
CTC1_L_00268027-01
1 15181U 26935GI  26037.47804398  .00000000  00000+0  00000-0 0  9991
2 15181  40.0000 312.0000 0000000   0.0000 312.0000 15.28598690    18
CTC1_L_00268027-02
1 15182U 25472DD  26037.47804398  .00000000  00000+0  00000-0 0  9997
2 15182  40.0000 312.0000 0000000   0.0000  42.0000 15.28598690    19
CTC1_L_00268027-03
1 15183U 26161WH  26037.47804398  .00000000  00000+0  00000-0 0  9994
2 15183  40.0000 312.0000 0000000   0.0000 132.0000 15.28598690    10
CTC1_L_00268027-04
1 15184U 23339NO  26037.47804398  .00000000  00000+0  00000-0 0  9999
2 15184  40.0000 312.0000 0000000   0.0000 222.0000 15.28598690    11
CTC1_L_00268028-01
1 15185U 24661WH  26037.47804398  .00000000  00000+0  00000-0 0  9999
2 15185  40.0000 324.0000 0000000   0.0000 324.0000 15.28598690    18
CTC1_L_00268028-02
1 15186U 25688RU  26037.47804398  .00000000  00000+0  00000-0 0  9990
2 15186  40.0000 324.0000 0000000   0.0000  54.0000 15.28598690    19
CTC1_L_00268028-03
1 15187U 23331LJ  26037.47804398  .00000000  00000+0  00000-0 0  9994
2 15187  40.0000 324.0000 0000000   0.0000 144.0000 15.28598690    10
CTC1_L_00268028-04
1 15188U 24987FQ  26037.47804398  .00000000  00000+0  00000-0 0  9993
2 15188  40.0000 324.0000 0000000   0.0000 234.0000 15.28598690    11
CTC1_L_00268029-01
1 15189U 23758NA  26037.47804398  .00000000  00000+0  00000-0 0  9999
2 15189  40.0000 336.0000 0000000   0.0000 336.0000 15.28598690    18
CTC1_L_00268029-02
1 15190U 26496AK  26037.47804398  .00000000  00000+0  00000-0 0  9993
2 15190  40.0000 336.0000 0000000   0.0000  66.0000 15.28598690    10
CTC1_L_00268029-03
1 15191U 25773QN  26037.47804398  .00000000  00000+0  00000-0 0  9991
2 15191  40.0000 336.0000 0000000   0.0000 156.0000 15.28598690    11
CTC1_L_00268029-04
1 15192U 22291DP  26037.47804398  .00000000  00000+0  00000-0 0  9994
2 15192  40.0000 336.0000 0000000   0.0000 246.0000 15.28598690    12
CTC1_L_00268030-01
1 15193U 22734G   26037.47804398  .00000000  00000+0  00000-0 0  9997
2 15193  40.0000 348.0000 0000000   0.0000 348.0000 15.28598690    19
CTC1_L_00268030-02
1 15194U 22972UM  26037.47804398  .00000000  00000+0  00000-0 0  9992
2 15194  40.0000 348.0000 0000000   0.0000  78.0000 15.28598690    10
CTC1_L_00268030-03
1 15195U 22455XN  26037.47804398  .00000000  00000+0  00000-0 0  9999
2 15195  40.0000 348.0000 0000000   0.0000 168.0000 15.28598690    11
CTC1_L_00268030-04
1 15196U 25237HT  26037.47804398  .00000000  00000+0  00000-0 0  9991
2 15196  40.0000 348.0000 0000000   0.0000 258.0000 15.28598690    12
